{
    "links": {
        "self": "http://www.neowsapp.com/rest/v1/neo/3838852?api_key=iIulBulltgU6a56xZRHN4H3l9WmuAYTsLGpBGhQ2"
    },
    "id": "3838852",
    "neo_reference_id": "3838852",
    "name": "(2019 DF1)",
    "designation": "2019 DF1",
    "nasa_jpl_url": "http://ssd.jpl.nasa.gov/sbdb.cgi?sstr=3838852",
    "absolute_magnitude_h": 26.6,
    "estimated_diameter": {
        "kilometers": {
            "estimated_diameter_min": 0.0127219879,
            "estimated_diameter_max": 0.0284472297
        },
        "meters": {
            "estimated_diameter_min": 12.7219878539,
            "estimated_diameter_max": 28.4472296503
        },
        "miles": {
            "estimated_diameter_min": 0.0079050743,
            "estimated_diameter_max": 0.0176762835
        },
        "feet": {
            "estimated_diameter_min": 41.7388066307,
            "estimated_diameter_max": 93.330808926
        }
    },
    "is_potentially_hazardous_asteroid": false,
    "close_approach_data": [
        {
            "close_approach_date": "2019-02-20",
            "close_approach_date_full": "2019-Feb-20 12:17",
            "epoch_date_close_approach": 1550665020000,
            "relative_velocity": {
                "kilometers_per_second": "5.3428971771",
                "kilometers_per_hour": "19234.429837596",
                "miles_per_hour": "11951.5266954774"
            },
            "miss_distance": {
                "astronomical": "0.0452063354",
                "lunar": "17.5852644706",
                "kilometers": "6762771.486345598",
                "miles": "4202191.3434133324"
            },
            "orbiting_body": "Earth"
        }
    ],
    "orbital_data": {
        "orbit_id": "5",
        "orbit_determination_date": "2019-03-14 06:56:12",
        "first_observation_date": "2019-02-28",
        "last_observation_date": "2019-03-12",
        "data_arc_in_days": 12,
        "observations_used": 30,
        "orbit_uncertainty": "8",
        "minimum_orbit_intersection": ".0349637",
        "jupiter_tisserand_invariant": "4.843",
        "epoch_osculation": "2458544.5",
        "eccentricity": ".2660977722879312",
        "semi_major_axis": "1.34606525213449",
        "inclination": "4.348517999819927",
        "ascending_node_longitude": "166.2990342102782",
        "orbital_period": "570.4237467275253",
        "perihelion_distance": ".9878802871873097",
        "perihelion_argument": "312.8646016180458",
        "aphelion_distance": "1.70425021708167",
        "perihelion_time": "2458507.427750013757",
        "mean_anomaly": "23.39665918821307",
        "mean_motion": ".6311097707016771",
        "equinox": "J2000",
        "orbit_class": {
            "orbit_class_type": "APO",
            "orbit_class_description": "Near-Earth asteroid orbits which cross the Earth’s orbit similar to that of 1862 Apollo",
            "orbit_class_range": "a (semi-major axis) > 1.0 AU; q (perihelion) < 1.017 AU"
        }
    },
    "is_sentry_object": false
}